ONEWEB-0094             
1 45450U 20020AC  25151.55014060  .00000065  00000+0  13486-3 0  9992
2 45450  87.9065  81.8213 0001979  76.9656 283.1696 13.17648094256059
ONEWEB-0087             
1 45451U 20020AD  25151.54741373  .00000081  00000+0  19271-3 0  9992
2 45451  87.8826  97.0786 0001791  77.4636 282.6692 13.11415995252562
ONEWEB-0082             
1 45452U 20020AE  25151.39156770  .00000164  00000+0  42633-3 0  9997
2 45452  87.8831  97.1309 0001874  83.7770 276.3571 13.11415744252638
ONEWEB-0050             
1 45453U 20020AF  25151.46522889  .00002143  00000+0  21691-3 0  9994
2 45453  87.9971 299.6248 0000417 152.0129 208.1122 14.90551032283544
ONEWEB-0034             
1 45454U 20020AG  25151.56533751 -.00000456  00000+0 -13225-2 0  9996
2 45454  87.8833  97.1154 0002029  81.4279 278.7079 13.11415670252572
ONEWEB-0060             
1 45455U 20020AH  25151.37984389  .00000537  00000+0  14802-2 0  9993
2 45455  87.8836  97.1794 0002152  78.6578 281.4792 13.11417177252503
ONEWEB-0086             
1 45456U 20020AJ  25151.59164614  .00000263  00000+0  70620-3 0  9996
2 45456  87.8834  97.1090 0001683  76.7984 283.3331 13.11419078252590
ONEWEB-0088             
1 45457U 20020AK  25151.56957491 -.00000498  00000+0 -14419-2 0  9992
2 45457  87.8827  97.0639 0001998  78.2474 281.8878 13.11415962252521
